USA 253                 
1 40099U 14043A   20014.78207376 -.00000124  00000-0  00000+0 0  9998
2 40099   0.1155  92.6295 0001743 250.6191 130.6935  1.00268182  4546
USA 254                 
1 40100U 14043B   20011.83129359 -.00000167  00000-0  00000+0 0  9995
2 40100   0.1971  98.9990 0000491 283.6300 292.2166  1.00444193  4205
ASIASAT 8               
1 40107U 14046A   20017.24563161 -.00000038  00000-0  00000-0 0  9997
2 40107   0.0184  51.3862 0001758 228.6555 280.6385  1.00269133 78660
ASIASAT 6               
1 40141U 14052A   20017.48591000 -.00000366  00000-0  00000+0 0  9994
2 40141   0.0155  79.1189 0000748 266.3458  65.7107  1.00269319 19671
OPTUS 10                
1 40146U 14054A   20017.51507647 -.00000151  00000-0  00000+0 0  9991
2 40146   0.0498 164.7988 0002630 118.0752 174.9301  1.00270668 19630
MEASAT-3B               
1 40147U 14054B   20017.46279080 -.00000246  00000-0  00000+0 0  9998
2 40147   0.0415 324.4719 0002541 355.2869  54.6628  1.00273281 19687
LUCH (OLYMP)            
1 40258U 14058A   20017.60210681 -.00000048  00000-0  00000+0 0  9993
2 40258   0.0167 114.6163 0001711 158.6629 130.5252  1.00272145 19453
HIMAWARI-8              
1 40267U 14060A   20017.47256123 -.00000279  00000-0  00000+0 0  9998
2 40267   0.0445 231.8096 0000914  80.8266 114.4751  1.00273861 19378
IRNSS-1C                
1 40269U 14061A   20017.10215684 -.00000164  00000-0  00000+0 0  9991
2 40269   1.8630 190.0542 0019003  12.7737  32.9683  1.00271220 19334
INTELSAT 30 (IS-30)     
1 40271U 14062A   20016.63868537 -.00000154  00000-0  00000-0 0  9993
2 40271   0.0191  53.8180 0002026  58.4022 138.1648  1.00270571 19131
ARSAT 1                 
1 40272U 14062B   20017.35836920 -.00000264  00000-0  00000+0 0  9996
2 40272   0.0468 236.8661 0001332  49.8251 246.7356  1.00272198 19390
EXPRESS-AM6             
1 40277U 14064A   20017.16793285  .00000094  00000-0  00000-0 0  9999
2 40277   0.0123 198.8686 0000363 183.4924 207.1549  1.00273275 18089
GSAT-16                 
1 40332U 14078A   20017.15604778  .00000081  00000-0  00000+0 0  9998
2 40332   0.0998 275.9403 0003073 191.4385 119.8479  1.00272902 18768
DIRECTV 14              
1 40333U 14078B   20017.38313205 -.00000129  00000-0  00000+0 0  9990
2 40333   0.0140  79.6639 0001191 289.3316 145.9365  1.00272413 18758
YAMAL 401               
1 40345U 14082A   20017.10346538 -.00000232  00000-0  00000+0 0  9998
2 40345   0.0165  77.4519 0000914 334.1884 191.5187  1.00271049 18913
ASTRA 2G                
1 40364U 14089A   20017.27063162  .00000146  00000-0  00000-0 0  9997
2 40364   0.0220  10.4441 0002814   5.9752 225.3166  1.00271469 18475
FENGYUN 2G              
1 40367U 14090A   20017.11577317 -.00000305  00000-0  00000+0 0  9994
2 40367   1.7243  96.9003 0003526 306.0807 214.2281  1.00267514 18540
MUOS-3                  
1 40374U 15002A   20017.41715876 -.00000130  00000-0  00000+0 0  9999
2 40374   2.9706 343.4351 0052715 182.9099  84.6868  1.00271890 18327
INMARSAT 5-F2           
1 40384U 15005A   20017.25370413 -.00000289  00000-0  00000-0 0  9995
2 40384   0.0188  59.6116 0000598 334.9913 117.8434  1.00270818 17508
ABS-3A                  
1 40424U 15010A   20017.24563161 -.00000030  00000-0  00000-0 0  9993
2 40424   0.0150  66.8771 0001299 126.9689   7.7732  1.00274177 17912
EUTELSAT 115 WEST B     
1 40425U 15010B   20016.70374966 -.00000029  00000-0  00000+0 0  9994
2 40425   0.0069 138.0477 0000140 184.2756 291.7252  1.00272236 17931
EXPRESS-AM7             
1 40505U 15012A   20014.88973126  .00000149  00000-0  00000+0 0  9997
2 40505   0.0116  66.2809 0002623 208.5774 199.2127  1.00273138 17847
IRNSS-1D                
1 40547U 15018A   20014.66703934 -.00000285  00000-0  00000+0 0  9995
2 40547  28.7901 279.8346 0017128 180.7133   5.0178  1.00273663 17726
BEIDOU 17               
1 40549U 15019A   20016.81733102 -.00000188  00000-0  00000+0 0  9999
2 40549  53.2794 322.9595 0035520 194.8472 348.0833  1.00264643 17585
THOR 7                  
1 40613U 15022A   20017.24563161 -.00000013  00000-0  00000-0 0  9997
2 40613   0.0190 148.4901 0002672 152.6505 262.7402  1.00271399 17333
TURKMENALEM52E/MONACOSAT
1 40617U 15023A   20017.16775837  .00000100  00000-0  00000-0 0  9994
2 40617   0.0175  45.2837 0002217 257.7751 285.3980  1.00268718 17341
DIRECTV 15              
1 40663U 15026A   20016.92149091 -.00000106  00000-0  00000+0 0  9994
2 40663   0.0223  88.5967 0000159 106.0857 150.0105  1.00271696 17049
SKY MEXICO-1            
1 40664U 15026B   20017.21347006 -.00000238  00000-0  00000-0 0  9991
2 40664   0.0162   8.1150 0002070 299.1871 166.8610  1.00271622 17054
METEOSAT-11 (MSG-4)     
1 40732U 15034A   20017.24563161 -.00000002  00000-0  00000-0 0  9990
2 40732   0.6219 237.1881 0000489 123.3989 204.3157  1.00279871 16545
STAR ONE C4             
1 40733U 15034B   20017.21521479 -.00000269  00000-0  00000-0 0  9999
2 40733   0.0222  42.6508 0002759 288.9944 151.9141  1.00272710 16545
WGS F7 (USA 263)        
1 40746U 15036A   20017.50952212  .00000014  00000-0  00000+0 0  9996
2 40746   0.0119  60.6151 0000058 166.3139 247.9057  1.00271410 16383
INTELSAT 34 (IS-34)     
1 40874U 15039A   20017.30952278 -.00000289  00000-0  00000+0 0  9996
2 40874   0.0183  56.1258 0000055 152.6404 323.3425  1.00270947 16173
EUTELSAT 8 WEST B       
1 40875U 15039B   20017.37110567 -.00000069  00000-0  00000+0 0  9997
2 40875   0.0673 353.1498 0001847 286.5320 322.2236  1.00272758 16190
GSAT-6                  
1 40880U 15041A   20017.17369043 -.00000161  00000-0  00000-0 0  9993
2 40880   0.0092  71.5872 0008015 203.6870 345.4477  1.00271489 16152
INMARSAT 5-F3           
1 40882U 15042A   20017.50396499  .00000046  00000-0  00000+0 0  9998
2 40882   0.0195  63.2376 0000461 359.9984  54.1427  1.00272201 16065
MUOS-4                  
1 40887U 15044A   20017.45947583 -.00000094  00000-0  00000+0 0  9999
2 40887   3.1253 340.4044 0057582 358.5267  17.8368  1.00271224 16071
TJS-1                   
1 40892U 15046A   20015.60905888 -.00000158  00000-0  10000-3 0  9990
2 40892   0.0266 218.3859 0005449 141.1965 129.2533  1.00271939 16042
EXPRESS-AM8             
1 40895U 15048A   20017.22620654 -.00000115  00000-0  00000-0 0  9999
2 40895   0.0398 224.4802 0000359  49.5694 269.4838  1.00271257 15881
BEIDOU 20               
1 40938U 15053A   20017.21841657 -.00000141  00000-0  00000+0 0  9998
2 40938  52.8476 285.9632 0047706 183.5392 180.4571  1.00262447 15871
SKY MUSTER (NBN1A)      
1 40940U 15054A   20017.47247399 -.00000283  00000-0  00000+0 0  9990
2 40940   0.0155   6.7018 0001746 294.6989 125.2645  1.00271417 15775
ARSAT 2                 
1 40941U 15054B   20017.42833253 -.00000229  00000-0  00000+0 0  9996
2 40941   0.0453 239.3759 0001611  56.9449 253.1660  1.00272037 15827
MORELOS 3               
1 40946U 15056A   20017.42196429 -.00000045  00000-0  00000+0 0  9996
2 40946   5.0582 328.2646 0003071 355.2303 191.6090  1.00271683 15783
APSTAR 9                
1 40982U 15059A   20017.52063380 -.00000270  00000-0  00000+0 0  9999
2 40982   0.0588 264.7327 0000530 335.2061 205.8846  1.00272574 15664
TURKSAT 4B              
1 40984U 15060A   20017.16732219  .00000111  00000-0  00000-0 0  9991
2 40984   0.0160  32.2254 0002102 278.0220 275.9880  1.00271520 15629
CHINASAT 2C (ZX 2C)     
1 41021U 15063A   20017.46514617 -.00000328  00000-0  00000+0 0  9990
2 41021   0.0365 231.9768 0001931  81.9298  73.3340  1.00270883 15523
GSAT-15                 
1 41028U 15065A   20017.10425052 -.00000262  00000-0  00000-0 0  9992
2 41028   0.0406 240.8898 0001443   7.4093 358.6977  1.00271011 15342
BADR-7 (ARABSAT-6B)     
1 41029U 15065B   20017.35743948  .00000141  00000-0  00000+0 0  9991
2 41029   0.0458 239.0033 0004797  21.1132  10.7737  1.00272060 15416
LAOSAT 1                
1 41034U 15067A   20017.48591000 -.00000347  00000-0  00000+0 0  9992
2 41034   0.0484 255.4417 0002386   4.3672 159.9698  1.00268609 15352
TELSTAR 12V             
1 41036U 15068A   20013.45327054 -.00000118  00000-0  00000+0 0  9990
2 41036   0.0150  60.2829 0002454 234.3356 325.9567  1.00271553 15197
CHINASAT 1C (ZX 1C)     
1 41103U 15073A   20017.17497406 -.00000155  00000-0  00000-0 0  9995
2 41103   1.2597  93.9796 0003193 201.2588 325.3135  1.00270324 15175
ELEKTRO-L 2             
1 41105U 15074A   20017.17549488 -.00000101  00000-0  00000-0 0  9997
2 41105   0.8405 100.0063 0001097 223.7400 291.5144  1.00270680 15023
COSMOS 2513             
1 41121U 15075A   20017.17334149 -.00000142  00000-0  00000-0 0  9997
2 41121   0.0597 111.3650 0002840 190.0883 317.2391  1.00272732 15031
EXPRESS-AMU1            
1 41191U 15082A   20017.27063162  .00000151  00000-0  00000-0 0  9996
2 41191   0.0180  65.0198 0002487 237.9256 306.6983  1.00271033 14783
GAOFEN 4                
1 41194U 15083A   20016.96310252 -.00000339  00000-0  00000-0 0  9999
2 41194   0.0741 102.4149 0002755 133.3222 332.5257  1.00270615 14991
BELINTERSAT-1           
1 41238U 16001A   20017.45476508  .00000103  00000-0  00000+0 0  9998
2 41238   0.0148 326.1144 0001054 246.5808 118.8434  1.00271425 14755
IRNSS-1E                
1 41241U 16003A   20016.65183287 -.00000309  00000-0  00000+0 0  9993
2 41241  28.8981  98.7535 0022312 183.8586 179.2648  1.00267073 14701
EUTELSAT 9B             
1 41310U 16005A   20017.24007722  .00000057  00000-0  00000-0 0  9997
2 41310   0.0448  68.7986 0005589 223.8061 278.9317  1.00269259 14624
SES-9                   
1 41380U 16013A   20017.49146711 -.00000349  00000-0  00000+0 0  9996
2 41380   0.0481 261.6606 0000926 122.7813  17.1503  1.00269666 14265
EUTELSAT 65 WEST A      
1 41382U 16014A   20017.23728758 -.00000280  00000-0  00000-0 0  9993
2 41382   0.0464  26.9693 0001853 277.9445 191.4264  1.00270043 14058
